     2.100          NAVIGATION                              RINEX VERSION / TYPE
fic2rin                                 05/23/2015 00:26:36 PGM / RUN BY / DATE
                                                            END OF HEADER
 2 15  5 22  8  0  0.0  .567340292037D-03  .227373675443D-11  .000000000000D+00
     .109000000000D+03 -.531250000000D+01  .514057126828D-08 -.312028951178D+00
    -.124797224998D-06  .145655259257D-01  .943616032600D-05  .515356101799D+04
     .460800000000D+06  .931322574615D-08 -.184119239664D+01  .195577740669D-06
     .940563246806D+00  .192656250000D+03 -.226455140322D+01 -.840785022071D-08
     .464662212189D-09  .100000000000D+01  .184500000000D+04  .000000000000D+00
     .240000000000D+01  .000000000000D+00 -.204890966415D-07  .109000000000D+03
     .453606000000D+06  .400000000000D+01
 3 15  5 22  8  0  0.0  .333216972649D-03  .932232069317D-11  .000000000000D+00
     .710000000000D+02  .696875000000D+01  .506985403691D-08  .115466106633D+01
     .471249222755D-06  .904739019461D-03  .607967376709D-05  .515367311287D+04
     .460800000000D+06  .447034835815D-07 -.762778870767D+00  .186264514923D-08
     .959128165847D+00  .262375000000D+03 -.261932141080D+01 -.821819946385D-08
    -.321441960776D-11  .100000000000D+01  .184500000000D+04  .000000000000D+00
     .240000000000D+01  .000000000000D+00  .186264514923D-08  .710000000000D+02
     .453606000000D+06  .400000000000D+01
 4 15  5 22  8  0  0.0 -.157202593982D-04 -.147792889038D-11  .000000000000D+00
     .210000000000D+02 -.768750000000D+01  .511985611970D-08 -.100457533689D+01
    -.156462192535D-06  .112836286426D-01  .990182161331D-05  .515369027901D+04
     .460800000000D+06  .745058059692D-07 -.182591284490D+01  .286847352982D-06
     .939614942345D+00  .178812500000D+03  .105789648456D+01 -.826891586211D-08
     .487877464912D-09  .100000000000D+01  .184500000000D+04  .000000000000D+00
     .240000000000D+01  .000000000000D+00 -.651925802231D-08  .210000000000D+02
     .453606000000D+06  .400000000000D+01
 5 15  5 22  8  0  0.0 -.238634180278D-03  .454747350886D-11  .000000000000D+00
     .470000000000D+02  .709375000000D+01  .537022369137D-08  .217361361100D+01
     .433996319771D-06  .412927905563D-02  .590458512306D-05  .515355352211D+04
     .460800000000D+06 -.171363353729D-06 -.769735561181D+00  .633299350739D-07
     .946347610262D+00  .260031250000D+03  .371531422198D+00 -.835177645644D-08
     .342871424828D-10  .100000000000D+01  .184500000000D+04  .000000000000D+00
     .240000000000D+01  .000000000000D+00 -.107102096081D-07  .470000000000D+02
     .453606000000D+06  .400000000000D+01
 6 15  5 22  8  0  0.0  .166469253600D-03  .909494701773D-11  .000000000000D+00
     .590000000000D+02 -.151875000000D+02  .457233331318D-08  .863788232224D+00
    -.976026058197D-06  .147466198541D-03  .955723226070D-05  .515375239944D+04
     .460800000000D+06  .279396772385D-07 -.181223368749D+01 -.260770320892D-07
     .961801689598D+00  .198187500000D+03 -.278203209254D+01 -.789247161027D-08
     .460733477113D-09  .100000000000D+01  .184500000000D+04  .000000000000D+00
     .240000000000D+01  .000000000000D+00  .419095158577D-08  .590000000000D+02
     .453606000000D+06  .400000000000D+01
 7 15  5 22  8  0  0.0  .463744625449D-03  .250111042988D-11  .000000000000D+00
     .300000000000D+02  .966562500000D+02  .404766860164D-08 -.139240223430D+01
     .489689409733D-05  .836701749358D-02  .793300569057D-05  .515372040558D+04
     .460800000000D+06  .819563865662D-07  .135626111671D+01 -.214204192162D-06
     .970198650657D+00  .232718750000D+03 -.275550855536D+01 -.782639742944D-08
     .625026034843D-10  .100000000000D+01  .184500000000D+04  .000000000000D+00
     .240000000000D+01  .000000000000D+00 -.111758708954D-07  .300000000000D+02
     .453606000000D+06  .400000000000D+01
 8 15  5 22  8  0  0.0 -.220678281039D-03 -.159161572810D-11  .000000000000D+00
     .640000000000D+02 -.158125000000D+02  .532879339421D-08  .243435801884D+01
    -.849366188049D-06  .774213322438D-02  .236369669437D-05  .515370955658D+04
     .460800000000D+06  .428408384323D-07  .239880704826D+01 -.176951289177D-06
     .982934013776D+00  .346906250000D+03  .878112935877D+00 -.807640784338D-08
     .528593446610D-10  .100000000000D+01  .184500000000D+04  .000000000000D+00
     .240000000000D+01  .630000000000D+02 -.190921127796D-07  .640000000000D+02
     .453606000000D+06  .400000000000D+01
 9 15  5 22  8  0  0.0 -.159836839885D-03 -.591171556152D-11  .000000000000D+00
     .430000000000D+02  .129687500000D+02  .456769026263D-08  .613039981656D+00
     .469386577606D-06  .461360090412D-03  .930391252041D-05  .515359468651D+04
     .460800000000D+06 -.372529029846D-08  .280026958418D+00 -.279396772385D-07
     .957890867771D+00  .195718750000D+03  .267517016200D+01 -.795676000242D-08
    -.566095008701D-09  .100000000000D+01  .184500000000D+04  .000000000000D+00
     .240000000000D+01  .000000000000D+00  .465661287308D-09  .430000000000D+02
     .453606000000D+06  .400000000000D+01
11 15  5 22  8  0  0.0 -.579858198762D-03 -.250111042988D-11  .000000000000D+00
     .290000000000D+02 -.389062500000D+02  .598774941380D-08 -.133259477997D+01
    -.165961682796D-05  .157707247417D-01  .103376805782D-04  .515373769760D+04
     .460800000000D+06  .391155481339D-07 -.215413859014D+01  .428408384323D-06
     .893044014685D+00  .142750000000D+03  .140336425105D+01 -.868321883378D-08
     .366086677551D-09  .100000000000D+01  .184500000000D+04  .000000000000D+00
     .240000000000D+01  .000000000000D+00 -.121071934700D-07  .290000000000D+02
     .453606000000D+06  .400000000000D+01
12 15  5 22  8  0  0.0  .294993165880D-03  .318323145621D-11  .000000000000D+00
     .780000000000D+02 -.207500000000D+02  .386801826134D-08 -.193446028674D+01
    -.102445483208D-05  .558471691329D-02  .277161598206D-05  .515368283844D+04
     .460800000000D+06  .372529029846D-08  .242543515336D+01 -.726431608200D-07
     .989686167761D+00  .341187500000D+03  .595233733394D+00 -.793890211571D-08
     .457161899771D-10  .100000000000D+01  .184500000000D+04  .000000000000D+00
     .240000000000D+01  .000000000000D+00 -.121071934700D-07  .780000000000D+02
     .453606000000D+06  .400000000000D+01
14 15  5 22  8  0  0.0  .617103651166D-04 -.284217094304D-11  .000000000000D+00
     .860000000000D+02  .240000000000D+02  .431053669401D-08  .127050599267D+01
     .121816992760D-05  .811709125992D-02  .999122858047D-05  .515359954453D+04
     .460800000000D+06 -.173225998878D-06  .360458327542D+00  .130385160446D-07
     .967094454063D+00  .195062500000D+03 -.197903732436D+01 -.791890128260D-08
    -.507521140293D-09  .100000000000D+01  .184500000000D+04  .000000000000D+00
     .340000000000D+01  .000000000000D+00 -.931322574615D-08  .860000000000D+02
     .453606000000D+06  .400000000000D+01
16 15  5 22  8  0  0.0 -.126725062728D-03  .375166564481D-11  .000000000000D+00
     .500000000000D+02 -.205000000000D+02  .398052294762D-08  .225858268868D+01
    -.109337270260D-05  .818641600199D-02  .268034636974D-05  .515355644989D+04
     .460800000000D+06 -.134110450745D-06  .244411495243D+01 -.167638063431D-07
     .990244939562D+00  .346218750000D+03  .299792092024D+00 -.807533637017D-08
    -.392873507616D-10  .100000000000D+01  .184500000000D+04  .000000000000D+00
     .240000000000D+01  .000000000000D+00 -.102445483208D-07  .500000000000D+02
     .453606000000D+06  .400000000000D+01
17 15  5 22  8  0  0.0 -.172338914126D-03 -.181898940355D-11  .000000000000D+00
     .800000000000D+02 -.105718750000D+03  .409588489576D-08  .132876845483D+01
    -.547058880329D-05  .100967397448D-01  .787898898125D-05  .515377171516D+04
     .460800000000D+06 -.176951289177D-06 -.281277119201D+01 -.577419996262D-07
     .972716808119D+00  .232500000000D+03 -.200780718687D+01 -.800497629654D-08
    -.228580949885D-10  .100000000000D+01  .184500000000D+04  .000000000000D+00
     .340000000000D+01  .000000000000D+00 -.107102096081D-07  .800000000000D+02
     .453606000000D+06  .400000000000D+01
18 15  5 22  8  0  0.0  .403347890824D-03  .295585778076D-11  .000000000000D+00
     .340000000000D+02  .371875000000D+01  .571416658940D-08  .283420797870D+01
     .838190317154D-07  .162288185675D-01  .523589551449D-05  .515359951782D+04
     .460800000000D+06  .968575477600D-07 -.782767754768D+00 -.260770320892D-06
     .924918888641D+00  .256531250000D+03 -.196211920927D+01 -.834141888215D-08
    -.989326923723D-10  .100000000000D+01  .184500000000D+04  .000000000000D+00
     .240000000000D+01  .000000000000D+00 -.111758708954D-07  .340000000000D+02
     .453606000000D+06  .400000000000D+01
19 15  5 22  8  0  0.0 -.511144753546D-03 -.113686837722D-11  .000000000000D+00
     .280000000000D+02 -.975000000000D+02  .418124559423D-08  .543969095982D+00
    -.502727925777D-05  .114122768864D-01  .852160155773D-05  .515373398209D+04
     .460800000000D+06 -.372529029846D-08 -.276317037083D+01  .227242708206D-06
     .969774329805D+00  .221375000000D+03  .546596100402D+00 -.801890544817D-08
    -.610739725475D-10  .100000000000D+01  .184500000000D+04  .000000000000D+00
     .240000000000D+01  .000000000000D+00 -.153668224812D-07  .280000000000D+02
     .453606000000D+06  .400000000000D+01
20 15  5 22  8  0  0.0  .322284176946D-03  .363797880709D-11  .000000000000D+00
     .980000000000D+02  .762500000000D+01  .584917221293D-08  .118301339154D+01
     .452622771263D-06  .562370906118D-02  .584125518799D-05  .515580669785D+04
     .460800000000D+06 -.173225998878D-06 -.835186889092D+00  .596046447754D-07
     .926065029366D+00  .251187500000D+03  .121686141722D+01 -.868893335752D-08
     .600024993449D-10  .100000000000D+01  .184500000000D+04  .000000000000D+00
     .240000000000D+01  .000000000000D+00 -.838190317154D-08  .980000000000D+02
     .453606000000D+06  .400000000000D+01
